
# Worst residual: 7.39 km
# MJD 60657.000000 (2024 Dec 13  0:00)
A116CgX = A116I21
1 79925U 24999ZZO 24348.49919926  .00000000  00000-0  00000-0 0 24688
2 79925 026.2937 349.7750 9021389 170.5581 246.3465 00.46189613    05

# Worst residual: 18.50 km
# MJD 60658.000000 (2024 Dec 14  0:00)
A116CgX = A116I21
1 79925U 24999ZZO 24349.49919926  .00000000  00000-0  00000-0 0 24689
2 79925 026.3070 349.7118 9018142 170.6518 052.5446 00.46195322    06

# Worst residual: 4.16 km
# MJD 60659.000000 (2024 Dec 15  0:00)
A116CgX = A116I21
1 79925U 24999ZZO 24350.49919926  .00000000  00000-0  00000-0 0 24681
2 79925 026.2623 349.6828 9022903 170.7198 218.6289 00.46182944    07

# Worst residual: 14.57 km
# MJD 60660.000000 (2024 Dec 16  0:00)
A116CgX = A116I21
1 79925U 24999ZZO 24351.49919926  .00000000  00000-0  00000-0 0 24682
2 79925 026.2781 349.6247 9020188 170.8210 024.8248 00.46213000    06

# Worst residual: 4.55 km
# MJD 60661.000000 (2024 Dec 17  0:00)
A116CgX = A116I21
1 79925U 24999ZZO 24352.49919926  .00000000  00000-0  00000-0 0 24683
2 79925 026.2394 349.5873 9023620 170.9020 190.9131 00.46174740    07

# Worst residual: 17.79 km
# MJD 60662.000000 (2024 Dec 18  0:00)
A116CgX = A116I21
1 79925U 24999ZZO 24353.49919926  .00000000  00000-0  00000-0 0 24684
2 79925 026.2580 349.5327 9021338 170.9992 357.0815 00.46181282    04

# Worst residual: 1.86 km
# MJD 60663.000000 (2024 Dec 19  0:00)
A116CgX = A116I21
1 79925U 24999ZZO 24354.49919926  .00000000  00000-0  00000-0 0 24685
2 79925 026.2267 349.4860 9023150 171.0883 163.2402 00.46173653    04

# Worst residual: 15.66 km
# MJD 60664.000000 (2024 Dec 20  0:00)
A116CgX = A116I21
1 79925U 24999ZZO 24355.49919926  .00000000  00000-0  00000-0 0 24686
2 79925 026.2532 349.4333 9021039 171.1730 329.4364 00.46154364    01

# Worst residual: 5.82 km
# MJD 60665.000000 (2024 Dec 21  0:00)
A116CgX = A116I21
1 79925U 24999ZZO 24356.49919926  .00000000  00000-0  00000-0 0 24687
2 79925 026.2230 349.3793 9022166 171.2735 135.6003 00.46170130    09

# Worst residual: 9.71 km
# MJD 60666.000000 (2024 Dec 22  0:00)
A116CgX = A116I21
1 79925U 24999ZZO 24357.49919926  .00000000  00000-0  00000-0 0 24688
2 79925 026.2472 349.3293 9020990 171.3494 301.8209 00.46155074    03

# Worst residual: 10.76 km
# MJD 60667.000000 (2024 Dec 23  0:00)
A116CgX = A116I21
1 79925U 24999ZZO 24358.49919926  .00000000  00000-0  00000-0 0 24689
2 79925 026.2237 349.2686 9021858 171.4669 107.9596 00.46163660    00

# Worst residual: 10.58 km
# MJD 60668.000000 (2024 Dec 24  0:00)
A116CgX = A116I21
1 79925U 24999ZZO 24359.49919926  .00000000  00000-0  00000-0 0 24680
2 79925 026.2208 349.2224 9023171 171.5471 274.1546 00.46171864    05

# Worst residual: 8.75 km
# MJD 60669.000000 (2024 Dec 25  0:00)
A116CgX = A116I21
1 79925U 24999ZZO 24360.49919926  .00000000  00000-0  00000-0 0 24682
2 79925 026.2212 349.1570 9022132 171.6658 080.3116 00.46165124    09

# Worst residual: 6.30 km
# MJD 60670.000000 (2024 Dec 26  0:00)
A116CgX = A116I21
1 79925U 24999ZZO 24361.49919926  .00000000  00000-0  00000-0 0 24683
2 79925 026.1880 349.1226 9024757 171.7367 246.4691 00.46177732    01

# Worst residual: 13.16 km
# MJD 60671.000000 (2024 Dec 27  0:00)
A116CgX = A116I21
1 79925U 24999ZZO 24362.49919926  .00000000  00000-0  00000-0 0 24684
2 79925 026.1976 349.0575 9022404 171.8444 052.6420 00.46186599    05

# Worst residual: 4.62 km
# MJD 60672.000000 (2024 Dec 28  0:00)
A116CgX = A116I21
1 79925U 24999ZZO 24363.49919926  .00000000  00000-0  00000-0 0 24685
2 79925 026.1564 349.0254 9024620 171.9187 218.7852 00.46180647    01

# Worst residual: 14.74 km
# MJD 60673.000000 (2024 Dec 29  0:00)
A116CgX = A116I21
1 79925U 24999ZZO 24364.49919926  .00000000  00000-0  00000-0 0 24686
2 79925 026.1705 348.9662 9020674 172.0123 024.9605 00.46213292    02

# Worst residual: 3.42 km
# MJD 60674.000000 (2024 Dec 30  0:00)
A116CgX = A116I21
1 79925U 24999ZZO 24365.49919926  .00000000  00000-0  00000-0 0 24687
2 79925 026.1304 348.9276 9024431 172.0870 191.1078 00.46185681    03

# Worst residual: 14.00 km
# MJD 60675.000000 (2024 Dec 31  0:00)
A116CgX = A116I21
1 79925U 24999ZZO 24366.49919926  .00000000  00000-0  00000-0 0 24688
2 79925 026.1476 348.8724 9021100 172.1787 357.3060 00.46195418    04
